COSMOS 2251 DEB         
1 36447U 93036BAW 17345.74331525  .00002075  00000-0  17077-3 0  9994
2 36447  73.9322 131.9483 0084018  25.0652 335.4574 14.97152907170703
